{
  "norad_id": 52620,
  "name": "STARLINK-3975",
  "history": [
    {
      "epoch": "2026-04-16T10:17:23.473824Z",
      "apogee_km": 540.5054059169479,
      "perigee_km": 538.9627206698324,
      "latitude_deg": 1.3297656584270607e-05,
      "longitude_deg": 115.77871371620198,
      "height_km": 540.5325945646708,
      "semi_major_axis_km": 6917.87106329339,
      "eccentricity": 0.0001115,
      "inclination_deg": 53.2158,
      "raan_deg": 114.7031,
      "arg_perigee_deg": 82.7492,
      "mean_anomaly_deg": 277.3627,
      "mean_motion_rev_day": 15.08843051
    },
    {
      "epoch": "2026-04-17T03:46:38.194464Z",
      "apogee_km": 540.5282872722473,
      "perigee_km": 538.9568217526439,
      "latitude_deg": -1.994707868562784e-05,
      "longitude_deg": -150.52232865986397,
      "height_km": 540.541806561466,
      "semi_major_axis_km": 6917.879554512445,
      "eccentricity": 0.00011358,
      "inclination_deg": 53.2154,
      "raan_deg": 111.4316,
      "arg_perigee_deg": 82.9406,
      "mean_anomaly_deg": 277.1715,
      "mean_motion_rev_day": 15.08840273
    },
    {
      "epoch": "2026-04-18T06:48:11.646432Z",
      "apogee_km": 540.5230733304525,
      "perigee_km": 538.9682100279078,
      "latitude_deg": 1.157646281420089e-05,
      "longitude_deg": 157.92319586116565,
      "height_km": 540.475175665589,
      "semi_major_axis_km": 6917.88264167918,
      "eccentricity": 0.00011238,
      "inclination_deg": 53.2151,
      "raan_deg": 106.3764,
      "arg_perigee_deg": 77.6494,
      "mean_anomaly_deg": 282.4624,
      "mean_motion_rev_day": 15.08839263
    },
    {
      "epoch": "2026-04-19T06:38:58.569792Z",
      "apogee_km": 540.4997557093448,
      "perigee_km": 538.9861235785511,
      "latitude_deg": 1.7235304619909538e-05,
      "longitude_deg": 154.7881501961156,
      "height_km": 540.4578005360634,
      "semi_major_axis_km": 6917.879939643948,
      "eccentricity": 0.0001094,
      "inclination_deg": 53.2158,
      "raan_deg": 101.9162,
      "arg_perigee_deg": 76.1566,
      "mean_anomaly_deg": 283.9548,
      "mean_motion_rev_day": 15.08840147
    },
    {
      "epoch": "2026-04-20T11:15:55.639872Z",
      "apogee_km": 540.5430934487604,
      "perigee_km": 538.9732846724601,
      "latitude_deg": 4.116515236545147e-05,
      "longitude_deg": 79.02286272697062,
      "height_km": 540.4709007830791,
      "semi_major_axis_km": 6917.89518906061,
      "eccentricity": 0.00011346,
      "inclination_deg": 53.216,
      "raan_deg": 96.5639,
      "arg_perigee_deg": 76.503,
      "mean_anomaly_deg": 283.6089,
      "mean_motion_rev_day": 15.08835158
    }
  ]
}